FLOCK 4G-21             
1 62651U 25009AU  26068.19487675  .00013648  00000+0  49619-3 0  9998
2 62651  97.4032 151.1274 0000465 329.5782  30.5431 15.28381075 63677
STARLINK-33630          
1 63477U 25070T   26068.53279217  .00040201  00000+0  14629-2 0  9999
2 63477  42.9982 257.0985 0001498 254.5646 105.5040 15.27568423 52996
